{
  "type": "FeatureCollection",
  "features": [
    {
      "type": "Feature",
      "properties": {
        "norad_id": 29843,
        "name": "FENGYUN 1C DEB",
        "group": "fengyun-1c-debris",
        "lat": 51.07318483928736,
        "lon": -172.1675009468898,
        "alt_km": 921.3432837657401,
        "timestamp": "2025-12-26T08:37:54.851995+00:00",
        "meta_object_name": "FENGYUN 1C DEB",
        "meta_object_id": "1999-025EM",
        "meta_epoch": "2025-12-26T03:53:40.325856",
        "meta_mean_motion": 14.28580567,
        "meta_eccentricity": 0.0191586,
        "meta_inclination": 99.0366,
        "meta_ra_of_asc_node": 198.9918,
        "meta_arg_of_pericenter": 251.7132,
        "meta_mean_anomaly": 225.0138,
        "meta_ephemeris_type": 0,
        "meta_classification_type": "U",
        "meta_norad_cat_id": 29843,
        "meta_element_set_no": 999,
        "meta_rev_at_epoch": 98473,
        "meta_bstar": 0.00024115,
        "meta_mean_motion_dot": 6.83e-06,
        "meta_mean_motion_ddot": 0,
        "tle_line1": "1 29843U 99025EM  25360.16227229  .00000683  00000+0  24115-3 0  9990",
        "tle_line2": "2 29843  99.0366 198.9918 0191586 251.7132 225.0138 14.28580567984735"
      },
      "geometry": {
        "type": "Point",
        "coordinates": [
          -172.1675009468898,
          51.07318483928736
        ]
      }
    },
    {
      "type": "Feature",
      "properties": {
        "norad_id": 29844,
        "name": "FENGYUN 1C DEB",
        "group": "fengyun-1c-debris",
        "lat": -78.76623432029369,
        "lon": 29.71658076093499,
        "alt_km": 877.944579311481,
        "timestamp": "2025-12-26T08:37:54.852005+00:00",
        "meta_object_name": "FENGYUN 1C DEB",
        "meta_object_id": "1999-025EN",
        "meta_epoch": "2025-12-25T16:19:40.137024",
        "meta_mean_motion": 14.32014005,
        "meta_eccentricity": 0.01686621,
        "meta_inclination": 98.937,
        "meta_ra_of_asc_node": 261.4149,
        "meta_arg_of_pericenter": 129.3376,
        "meta_mean_anomaly": 232.2893,
        "meta_ephemeris_type": 0,
        "meta_classification_type": "U",
        "meta_norad_cat_id": 29844,
        "meta_element_set_no": 999,
        "meta_rev_at_epoch": 98526,
        "meta_bstar": 0.00040314264,
        "meta_mean_motion_dot": 1.216e-05,
        "meta_mean_motion_ddot": 0,
        "tle_line1": "1 29844U 99025EN  25359.68032566  .00001216  00000+0  40314-3 0  9996",
        "tle_line2": "2 29844  98.9370 261.4149 0168662 129.3376 232.2893 14.32014005985261"
      },
      "geometry": {
        "type": "Point",
        "coordinates": [
          29.71658076093499,
          -78.76623432029369
        ]
      }
    },
    {
      "type": "Feature",
      "properties": {
        "norad_id": 29845,
        "name": "FENGYUN 1C DEB",
        "group": "fengyun-1c-debris",
        "lat": -62.67130139766619,
        "lon": 163.4743686555817,
        "alt_km": 860.1195070864715,
        "timestamp": "2025-12-26T08:37:54.852015+00:00",
        "meta_object_name": "FENGYUN 1C DEB",
        "meta_object_id": "1999-025EP",
        "meta_epoch": "2025-12-25T21:42:20.062368",
        "meta_mean_motion": 14.26516625,
        "meta_eccentricity": 0.0078163,
        "meta_inclination": 98.5221,
        "meta_ra_of_asc_node": 359.8981,
        "meta_arg_of_pericenter": 93.0247,
        "meta_mean_anomaly": 333.7798,
        "meta_ephemeris_type": 0,
        "meta_classification_type": "U",
        "meta_norad_cat_id": 29845,
        "meta_element_set_no": 999,
        "meta_rev_at_epoch": 98297,
        "meta_bstar": 0.00049346,
        "meta_mean_motion_dot": 1.186e-05,
        "meta_mean_motion_ddot": 0,
        "tle_line1": "1 29845U 99025EP  25359.90439887  .00001186  00000+0  49346-3 0  9999",
        "tle_line2": "2 29845  98.5221 359.8981 0078163  93.0247 333.7798 14.26516625982973"
      },
      "geometry": {
        "type": "Point",
        "coordinates": [
          163.4743686555817,
          -62.67130139766619
        ]
      }
    },
    {
      "type": "Feature",
      "properties": {
        "norad_id": 29846,
        "name": "FENGYUN 1C DEB",
        "group": "fengyun-1c-debris",
        "lat": -81.1736136417665,
        "lon": 120.59157902678501,
        "alt_km": 775.8032874871051,
        "timestamp": "2025-12-26T08:37:54.852025+00:00",
        "meta_object_name": "FENGYUN 1C DEB",
        "meta_object_id": "1999-025EQ",
        "meta_epoch": "2025-12-26T02:32:03.420960",
        "meta_mean_motion": 14.19100504,
        "meta_eccentricity": 0.0083776,
        "meta_inclination": 98.6534,
        "meta_ra_of_asc_node": 41.6124,
        "meta_arg_of_pericenter": 265.3167,
        "meta_mean_anomaly": 149.0486,
        "meta_ephemeris_type": 0,
        "meta_classification_type": "U",
        "meta_norad_cat_id": 29846,
        "meta_element_set_no": 999,
        "meta_rev_at_epoch": 98049,
        "meta_bstar": 0.0001378,
        "meta_mean_motion_dot": 2.54e-06,
        "meta_mean_motion_ddot": 0,
        "tle_line1": "1 29846U 99025EQ  25360.10559515  .00000254  00000+0  13780-3 0  9993",
        "tle_line2": "2 29846  98.6534  41.6124 0083776 265.3167 149.0486 14.19100504980492"
      },
      "geometry": {
        "type": "Point",
        "coordinates": [
          120.59157902678501,
          -81.1736136417665
        ]
      }
    },
    {
      "type": "Feature",
      "properties": {
        "norad_id": 29847,
        "name": "FENGYUN 1C DEB",
        "group": "fengyun-1c-debris",
        "lat": 81.0495079378069,
        "lon": -99.55294461650813,
        "alt_km": 875.1387925131194,
        "timestamp": "2025-12-26T08:37:54.852036+00:00",
        "meta_object_name": "FENGYUN 1C DEB",
        "meta_object_id": "1999-025ER",
        "meta_epoch": "2025-12-25T23:56:10.868928",
        "meta_mean_motion": 14.03013545,
        "meta_eccentricity": 0.008472,
        "meta_inclination": 98.9041,
        "meta_ra_of_asc_node": 355.6167,
        "meta_arg_of_pericenter": 2.1046,
        "meta_mean_anomaly": 58.7937,
        "meta_ephemeris_type": 0,
        "meta_classification_type": "U",
        "meta_norad_cat_id": 29847,
        "meta_element_set_no": 999,
        "meta_rev_at_epoch": 96921,
        "meta_bstar": 0.00032949,
        "meta_mean_motion_dot": 4.85e-06,
        "meta_mean_motion_ddot": 0,
        "tle_line1": "1 29847U 99025ER  25359.99734802  .00000485  00000+0  32949-3 0  9997",
        "tle_line2": "2 29847  98.9041 355.6167 0084720   2.1046  58.7937 14.03013545969212"
      },
      "geometry": {
        "type": "Point",
        "coordinates": [
          -99.55294461650813,
          81.0495079378069
        ]
      }
    },
    {
      "type": "Feature",
      "properties": {
        "norad_id": 29848,
        "name": "FENGYUN 1C DEB",
        "group": "fengyun-1c-debris",
        "lat": 36.30688089504935,
        "lon": -140.06150899934437,
        "alt_km": 885.79411702788,
        "timestamp": "2025-12-26T08:37:54.852045+00:00",
        "meta_object_name": "FENGYUN 1C DEB",
        "meta_object_id": "1999-025ES",
        "meta_epoch": "2025-12-25T14:09:47.219904",
        "meta_mean_motion": 14.20638169,
        "meta_eccentricity": 0.0116329,
        "meta_inclination": 98.2482,
        "meta_ra_of_asc_node": 225.3383,
        "meta_arg_of_pericenter": 257.5907,
        "meta_mean_anomaly": 165.0338,
        "meta_ephemeris_type": 0,
        "meta_classification_type": "U",
        "meta_norad_cat_id": 29848,
        "meta_element_set_no": 999,
        "meta_rev_at_epoch": 97300,
        "meta_bstar": 0.0012637,
        "meta_mean_motion_dot": 2.872e-05,
        "meta_mean_motion_ddot": 0,
        "tle_line1": "1 29848U 99025ES  25359.59012986  .00002872  00000+0  12637-2 0  9999",
        "tle_line2": "2 29848  98.2482 225.3383 0116329 257.5907 165.0338 14.20638169973004"
      },
      "geometry": {
        "type": "Point",
        "coordinates": [
          -140.06150899934437,
          36.30688089504935
        ]
      }
    },
    {
      "type": "Feature",
      "properties": {
        "norad_id": 29849,
        "name": "FENGYUN 1C DEB",
        "group": "fengyun-1c-debris",
        "lat": -14.464809835556121,
        "lon": -97.70465517440292,
        "alt_km": 938.6460797447717,
        "timestamp": "2025-12-26T08:37:54.852055+00:00",
        "meta_object_name": "FENGYUN 1C DEB",
        "meta_object_id": "1999-025ET",
        "meta_epoch": "2025-12-26T04:25:33.570048",
        "meta_mean_motion": 14.0492972,
        "meta_eccentricity": 0.0079837,
        "meta_inclination": 99.0101,
        "meta_ra_of_asc_node": 84.4671,
        "meta_arg_of_pericenter": 6.6807,
        "meta_mean_anomaly": 22.1236,
        "meta_ephemeris_type": 0,
        "meta_classification_type": "U",
        "meta_norad_cat_id": 29849,
        "meta_element_set_no": 999,
        "meta_rev_at_epoch": 96559,
        "meta_bstar": 0.0009736,
        "meta_mean_motion_dot": 1.566e-05,
        "meta_mean_motion_ddot": 0,
        "tle_line1": "1 29849U 99025ET  25360.18441632  .00001566  00000+0  97360-3 0  9997",
        "tle_line2": "2 29849  99.0101  84.4671 0079837   6.6807  22.1236 14.04929720965593"
      },
      "geometry": {
        "type": "Point",
        "coordinates": [
          -97.70465517440292,
          -14.464809835556121
        ]
      }
    }
  ]
}